ONEWEB-0589             
1 54655U 22166P   25199.60256476 -.00000007  00000+0 -49644-4 0  9993
2 54655  87.9275 310.5375 0001937 125.5672 234.5643 13.21828913127473
ONEWEB-0590             
1 54656U 22166Q   25199.55038414  .00000097  00000+0  20238-3 0  9992
2 54656  87.9270 310.5262 0001537  96.1273 264.0036 13.21827224127456
ONEWEB-0591             
1 54657U 22166R   25199.33604833  .00000080  00000+0  16168-3 0  9992
2 54657  87.9275 310.5911 0001906 104.6558 255.4788 13.21824700127458
ONEWEB-0592             
1 54658U 22166S   25199.56629347 -.00000003  00000+0 -37953-4 0  9998
2 54658  87.9278 310.4969 0001843 103.5498 256.5841 13.21825052127368
ONEWEB-0593             
1 54659U 22166T   25199.58995092  .00000001  00000+0 -29657-4 0  9993
2 54659  87.9274 310.5310 0001922 105.9698 254.1647 13.21825305127473
ONEWEB-0594             
1 54660U 22166U   25199.30608310  .00000008  00000+0 -13320-4 0  9996
2 54660  87.9281 310.6018 0002039  99.3062 260.8303 13.21824390127454
ONEWEB-0595             
1 54661U 22166V   25199.58679616  .00000000  00000+0 -31272-4 0  9992
2 54661  87.9274 310.5230 0001940  94.2817 265.8539 13.21825662127464
ONEWEB-0596             
1 54662U 22166W   25199.55998175  .00000106  00000+0  22479-3 0  9998
2 54662  87.9280 310.5422 0001919  99.5159 260.6192 13.21824812127934
ONEWEB-0597             
1 54663U 22166X   25199.54105666  .00000091  00000+0  18863-3 0  9998
2 54663  87.9280 310.5492 0002027 105.5088 254.6270 13.21825589127462
ONEWEB-0600             
1 54664U 22166Y   25199.59941442  .00000026  00000+0  31304-4 0  9998
2 54664  87.9268 310.5354 0002079 103.4833 256.6532 13.21825740127448
ONEWEB-0601             
1 54665U 22166Z   25199.59152862 -.00000014  00000+0 -64668-4 0  9997
2 54665  87.9280 310.5502 0001869 110.6410 249.4925 13.21825402127637
ONEWEB-0602             
1 54666U 22166AA  25199.55682900  .00000144  00000+0  31797-3 0  9993
2 54666  87.9280 310.5574 0002135 107.2248 252.9120 13.21825648127475
ONEWEB-0603             
1 54667U 22166AB  25199.56157428  .00000094  00000+0  19637-3 0  9990
2 54667  87.9263 310.4948 0002030 108.3038 251.8317 13.21826517127409
ONEWEB-0604             
1 54668U 22166AC  25199.54895526  .00000050  00000+0  89549-4 0  9999
2 54668  87.9276 310.5186 0002095 106.3689 253.7675 13.21825066127361
ONEWEB-0605             
1 54669U 22166AD  25199.54263409  .00000111  00000+0  23670-3 0  9999
2 54669  87.9276 310.5505 0001585 118.7966 241.3327 13.21825672127433
ONEWEB-0606             
1 54670U 22166AE  25199.56472272  .00000114  00000+0  24501-3 0  9990
2 54670  87.9274 310.5575 0001996  95.4963 264.6399 13.21825341127490
ONEWEB-0607             
1 54671U 22166AF  25199.30450413  .00000096  00000+0  20159-3 0  9990
2 54671  87.9276 310.5742 0001947 104.7971 255.3379 13.21823778127439
ONEWEB-0608             
1 54672U 22166AG  25199.53791406  .00000002  00000+0 -27844-4 0  9993
2 54672  87.9265 310.5147 0001904 116.9964 243.1365 13.21826712127472
ONEWEB-0610             
1 54673U 22166AH  25199.36758826  .00000013  00000+0 -92678-6 0  9995
2 54673  87.9276 310.5815 0001763 113.0247 247.1073 13.21826480127351
ONEWEB-0611             
1 54674U 22166AJ  25199.58837317 -.00000013  00000+0 -62792-4 0  9996
2 54674  87.9276 310.5342 0002108  94.4682 265.6693 13.21825316127378
ONEWEB-0612             
1 54675U 22166AK  25199.60098434  .00000015  00000+0  44005-5 0  9997
2 54675  87.9277 310.5092 0001917 106.1580 253.9765 13.21825045127365
ONEWEB-0615             
1 54676U 22166AL  25199.35498442  .00000017  00000+0  96903-5 0  9999
2 54676  87.9278 310.5847 0002040 100.1218 260.0146 13.21826168127342
ONEWEB-0655             
1 54677U 22166AM  25199.55524839  .00000156  00000+0  34740-3 0  9995
2 54677  87.9277 310.5491 0002254 105.5627 254.5756 13.21828494127368
ONEWEB-0659             
1 54678U 22166AN  25199.57260078  .00000023  00000+0  23414-4 0  9990
2 54678  87.9275 310.5467 0001881  96.3647 263.7701 13.21825229127459
ONEWEB-0685             
1 54679U 22166AP  25199.57418416  .00000071  00000+0  14059-3 0  9999
2 54679  87.9278 310.5414 0001924 108.6515 251.4828 13.21825145127343
ONEWEB-0712             
1 54680U 22166AQ  25199.50936145  .00000074  00000+0  15996-3 0  9992
2 54680  87.9056 295.2724 0002614 103.7689 256.3732 13.16595539128150
ONEWEB-0714             
1 54681U 22166AR  25199.58049704 -.00000025  00000+0 -91121-4 0  9990
2 54681  87.9280 310.5329 0002057 106.7810 253.3550 13.21825686127465
ONEWEB-0532             
1 55140U 23004A   25199.36981145  .00000027  00000+0  37116-4 0  9997
2 55140  87.9048  72.3057 0001370  77.9060 282.2225 13.17648380123625
ONEWEB-0533             
1 55141U 23004B   25199.30993196 -.00000161  00000+0 -48328-3 0  9998
2 55141  87.8860  57.0469 0001821  90.4850 269.6487 13.12441425124268
ONEWEB-0541             
1 55142U 23004C   25199.61281855  .00000327  00000+0  88765-3 0  9996
2 55142  87.8821  87.5368 0001844  77.7810 282.3525 13.11414628122224
ONEWEB-0543             
1 55143U 23004D   25199.45897080  .00000015  00000+0  40977-5 0  9991
2 55143  87.9108  41.8208 0002113  90.7839 269.3535 13.18687632125713
ONEWEB-0544             
1 55144U 23004E   25199.45235657  .00000037  00000+0  60679-4 0  9992
2 55144  87.9111  41.8121 0002020  83.3611 276.7751 13.18685812125715
ONEWEB-0560             
1 55145U 23004F   25199.52163435  .00000033  00000+0  51154-4 0  9999
2 55145  87.9116  41.7728 0002040  81.5249 278.6115 13.18687005125735
ONEWEB-0565             
1 55146U 23004G   25199.51504616  .00000053  00000+0  10287-3 0  9992
2 55146  87.9107  41.8323 0001732  69.3884 290.7434 13.18685618125720
ONEWEB-0567             
1 55147U 23004H   25199.50845108  .00000028  00000+0  39003-4 0  9996
2 55147  87.9114  41.7904 0001926  74.7659 285.3686 13.18685990125720
ONEWEB-0569             
1 55148U 23004J   25199.50261242  .00000310  00000+0  81367-3 0  9991
2 55148  87.8956  26.4988 0002513  69.1833 290.9565 13.13471395126378
ONEWEB-0570             
1 55149U 23004K   25199.57444267  .00000024  00000+0  29346-4 0  9991
2 55149  87.9112  41.7804 0001239  75.8313 284.2957 13.18689621125729
ONEWEB-0571             
1 55150U 23004L   25199.49194869  .00000015  00000+0  64593-5 0  9998
2 55150  87.9108  41.8034 0002252  52.2467 307.8869 13.18685684125726
ONEWEB-0572             
1 55151U 23004M   25199.62799114 -.00000022  00000+0 -89971-4 0  9994
2 55151  87.9049  72.2626 0001695  75.4555 284.6764 13.17649581123551
ONEWEB-0573             
1 55152U 23004N   25199.48535985 -.00000006  00000+0 -47984-4 0  9993
2 55152  87.9107  41.8114 0001616  56.3923 303.7363 13.18684964125714
ONEWEB-0588             
1 55153U 23004P   25199.55462774  .00000026  00000+0  32428-4 0  9994
2 55153  87.9113  41.7810 0001439  76.9312 283.1981 13.18684708125721
ONEWEB-0598             
1 55154U 23004Q   25199.43818254  .00000337  00000+0  91559-3 0  9994
2 55154  87.8821  87.6084 0002194  63.4451 296.6902 13.11417663122156
ONEWEB-0599             
1 55155U 23004R   25199.58918657  .00000020  00000+0  17730-4 0  9998
2 55155  87.9051  72.2747 0002003  77.6635 282.4721 13.17648571123556
ONEWEB-0614             
1 55156U 23004S   25199.43308347  .00000133  00000+0  33975-3 0  9995
2 55156  87.8825  87.6188 0001503  80.6282 279.5016 13.11419922122092
ONEWEB-0616             
1 55157U 23004T   25199.63137221 -.00000019  00000+0 -81094-4 0  9990
2 55157  87.9047  72.2573 0002816  88.5744 271.5710 13.17648670123775
ONEWEB-0617             
1 55158U 23004U   25199.42120897 -.00000290  00000+0 -85402-3 0  9996
2 55158  87.8821  87.6009 0001510  72.2188 287.9104 13.11416700122117
ONEWEB-0618             
1 55159U 23004V   25199.33466366  .00001211  00000+0  20918-3 0  9994
2 55159  86.9102 311.1116 0016799  79.4094 280.9012 14.67539042132135
ONEWEB-0619             
1 55160U 23004W   25199.58749134  .00000185  00000+0  44230-3 0  9992
2 55160  87.9046  72.2432 0001724  97.2665 262.8663 13.17649473123668
ONEWEB-0620             
1 55161U 23004X   25199.41613687 -.00000428  00000+0 -12436-2 0  9992
2 55161  87.8824  87.6224 0001791  70.2123 289.9198 13.11417508122089
ONEWEB-0621             
1 55162U 23004Y   25199.44326718  .00000500  00000+0  13740-2 0  9990
2 55162  87.8819  87.5734 0001670  85.0537 275.0782 13.11418816122064
ONEWEB-0622             
1 55163U 23004Z   25199.44835814  .00000478  00000+0  13122-2 0  9991
2 55163  87.8820  87.5960 0001104  68.7668 291.3578 13.11416188122056
ONEWEB-0623             
1 55164U 23004AA  25199.58243512  .00000012  00000+0 -16966-5 0  9992
2 55164  87.9047  72.3006 0001131  94.5009 265.6252 13.17649043123652
ONEWEB-0624             
1 55165U 23004AB  25199.55111330 -.00000359  00000+0 -10258-2 0  9992
2 55165  87.8861  56.9938 0001716  84.4862 275.6463 13.12941280124291
ONEWEB-0625             
1 55166U 23004AC  25199.34448095  .00000050  00000+0  94437-4 0  9990
2 55166  87.9050  72.3450 0001944  82.3009 277.8343 13.17647738123619
ONEWEB-0626             
1 55167U 23004AD  25199.41031094  .00000026  00000+0  33007-4 0  9995
2 55167  87.9050  72.3304 0002072  66.2195 293.9153 13.17650173123624
ONEWEB-0627             
1 55168U 23004AE  25199.62630451 -.00000007  00000+0 -51872-4 0  9992
2 55168  87.9041  72.2894 0001188  84.2400 275.8867 13.17647333123652
ONEWEB-0628             
1 55169U 23004AF  25199.33277189 -.00000543  00000+0 -15456-2 0  9997
2 55169  87.8864  57.0263 0001217 101.0727 259.0538 13.12442598124245
ONEWEB-0629             
1 55170U 23004AG  25199.37403595  .00000058  00000+0  11726-3 0  9991
2 55170  87.9056  72.3290 0001838  92.9764 267.1577 13.17648765123622
ONEWEB-0631             
1 55171U 23004AH  25199.47216188 -.00000008  00000+0 -54292-4 0  9996
2 55171  87.9123  41.7298 0001609  69.6179 290.5125 13.18685779125698
